[{"OBJECT_NAME":"STARLINK-34129","OBJECT_ID":"2025-111R","EPOCH":"2025-12-12T00:35:04.376544","MEAN_MOTION":15.2761046,"ECCENTRICITY":0.00017631,"INCLINATION":43.0004,"RA_OF_ASC_NODE":213.1748,"ARG_OF_PERICENTER":262.664,"MEAN_ANOMALY":97.4011,"EPHEMERIS_TYPE":0,"CLASSIFICATION_TYPE":"U","NORAD_CAT_ID":64138,"ELEMENT_SET_NO":999,"REV_AT_EPOCH":3210,"BSTAR":0.0018199589,"MEAN_MOTION_DOT":0.00050208,"MEAN_MOTION_DDOT":0},{"OBJECT_NAME":"STARLINK-34212","OBJECT_ID":"2025-111S","EPOCH":"2025-12-12T01:26:40.251840","MEAN_MOTION":15.27596757,"ECCENTRICITY":0.00017313,"INCLINATION":43,"RA_OF_ASC_NODE":212.5736,"ARG_OF_PERICENTER":265.4723,"MEAN_ANOMALY":94.5931,"EPHEMERIS_TYPE":0,"CLASSIFICATION_TYPE":"U","NORAD_CAT_ID":64139,"ELEMENT_SET_NO":999,"REV_AT_EPOCH":3206,"BSTAR":0.001413164,"MEAN_MOTION_DOT":0.00038851,"MEAN_MOTION_DDOT":0},{"OBJECT_NAME":"STARLINK-34149","OBJECT_ID":"2025-111T","EPOCH":"2025-12-11T22:33:09.385344","MEAN_MOTION":15.27602735,"ECCENTRICITY":0.0001897,"INCLINATION":43,"RA_OF_ASC_NODE":213.3908,"ARG_OF_PERICENTER":264.163,"MEAN_ANOMALY":95.9005,"EPHEMERIS_TYPE":0,"CLASSIFICATION_TYPE":"U","NORAD_CAT_ID":64140,"ELEMENT_SET_NO":999,"REV_AT_EPOCH":3204,"BSTAR":0.0014707,"MEAN_MOTION_DOT":0.00040461,"MEAN_MOTION_DDOT":0},{"OBJECT_NAME":"STARLINK-34054","OBJECT_ID":"2025-111U","EPOCH":"2025-12-12T00:03:36.838080","MEAN_MOTION":15.27599049,"ECCENTRICITY":0.0001831,"INCLINATION":42.9998,"RA_OF_ASC_NODE":213.0014,"ARG_OF_PERICENTER":267.1918,"MEAN_ANOMALY":92.8724,"EPHEMERIS_TYPE":0,"CLASSIFICATION_TYPE":"U","NORAD_CAT_ID":64141,"ELEMENT_SET_NO":999,"REV_AT_EPOCH":3205,"BSTAR":0.0013976,"MEAN_MOTION_DOT":0.00038422,"MEAN_MOTION_DDOT":0},{"OBJECT_NAME":"STARLINK-34195","OBJECT_ID":"2025-111V","EPOCH":"2025-12-12T01:21:08.208000","MEAN_MOTION":15.27548337,"ECCENTRICITY":0.00019797,"INCLINATION":42.9997,"RA_OF_ASC_NODE":212.5384,"ARG_OF_PERICENTER":242.4553,"MEAN_ANOMALY":117.6098,"EPHEMERIS_TYPE":0,"CLASSIFICATION_TYPE":"U","NORAD_CAT_ID":64142,"ELEMENT_SET_NO":999,"REV_AT_EPOCH":3206,"BSTAR":0.00035390055,"MEAN_MOTION_DOT":9.48e-5,"MEAN_MOTION_DDOT":0},{"OBJECT_NAME":"STARLINK-34133","OBJECT_ID":"2025-111W","EPOCH":"2025-12-12T01:15:34.056864","MEAN_MOTION":15.27599703,"ECCENTRICITY":0.00015656,"INCLINATION":42.999,"RA_OF_ASC_NODE":212.5133,"ARG_OF_PERICENTER":262.0888,"MEAN_ANOMALY":97.9786,"EPHEMERIS_TYPE":0,"CLASSIFICATION_TYPE":"U","NORAD_CAT_ID":64143,"ELEMENT_SET_NO":999,"REV_AT_EPOCH":3206,"BSTAR":0.0012321942,"MEAN_MOTION_DOT":0.00033821,"MEAN_MOTION_DDOT":0},{"OBJECT_NAME":"STARLINK-34181","OBJECT_ID":"2025-111X","EPOCH":"2025-12-12T00:12:52.176672","MEAN_MOTION":15.27591996,"ECCENTRICITY":8.586e-5,"INCLINATION":42.9976,"RA_OF_ASC_NODE":213.05,"ARG_OF_PERICENTER":256.0412,"MEAN_ANOMALY":104.0344,"EPHEMERIS_TYPE":0,"CLASSIFICATION_TYPE":"U","NORAD_CAT_ID":64144,"ELEMENT_SET_NO":999,"REV_AT_EPOCH":3205,"BSTAR":0.0011273276,"MEAN_MOTION_DOT":0.00030901,"MEAN_MOTION_DDOT":0},{"OBJECT_NAME":"STARLINK-34186","OBJECT_ID":"2025-111Y","EPOCH":"2025-12-12T00:25:49.387008","MEAN_MOTION":15.27615036,"ECCENTRICITY":0.00016157,"INCLINATION":43.0003,"RA_OF_ASC_NODE":213.1211,"ARG_OF_PERICENTER":267.8226,"MEAN_ANOMALY":92.2441,"EPHEMERIS_TYPE":0,"CLASSIFICATION_TYPE":"U","NORAD_CAT_ID":64145,"ELEMENT_SET_NO":999,"REV_AT_EPOCH":3205,"BSTAR":0.0011071304,"MEAN_MOTION_DOT":0.00030362,"MEAN_MOTION_DDOT":0},{"OBJECT_NAME":"STARLINK-34314","OBJECT_ID":"2025-112A","EPOCH":"2025-12-12T03:26:15.810720","MEAN_MOTION":15.05658062,"ECCENTRICITY":0.00017389,"INCLINATION":97.606,"RA_OF_ASC_NODE":35.1923,"ARG_OF_PERICENTER":93.975,"MEAN_ANOMALY":266.1676,"EPHEMERIS_TYPE":0,"CLASSIFICATION_TYPE":"U","NORAD_CAT_ID":64146,"ELEMENT_SET_NO":999,"REV_AT_EPOCH":3013,"BSTAR":0.00076628703,"MEAN_MOTION_DOT":0.00011016,"MEAN_MOTION_DDOT":0},{"OBJECT_NAME":"STARLINK-33926","OBJECT_ID":"2025-112B","EPOCH":"2025-12-12T02:50:22.978464","MEAN_MOTION":15.05652028,"ECCENTRICITY":0.00014667,"INCLINATION":97.6037,"RA_OF_ASC_NODE":35.2261,"ARG_OF_PERICENTER":98.9744,"MEAN_ANOMALY":261.1649,"EPHEMERIS_TYPE":0,"CLASSIFICATION_TYPE":"U","NORAD_CAT_ID":64147,"ELEMENT_SET_NO":999,"REV_AT_EPOCH":3013,"BSTAR":0.00016333983,"MEAN_MOTION_DOT":2.297e-5,"MEAN_MOTION_DDOT":0},{"OBJECT_NAME":"STARLINK-34213","OBJECT_ID":"2025-112C","EPOCH":"2025-12-12T03:38:13.157088","MEAN_MOTION":15.0566122,"ECCENTRICITY":6.183e-5,"INCLINATION":97.6071,"RA_OF_ASC_NODE":35.1807,"ARG_OF_PERICENTER":165.0685,"MEAN_ANOMALY":195.056,"EPHEMERIS_TYPE":0,"CLASSIFICATION_TYPE":"U","NORAD_CAT_ID":64148,"ELEMENT_SET_NO":999,"REV_AT_EPOCH":3013,"BSTAR":0.00056861817,"MEAN_MOTION_DOT":8.156e-5,"MEAN_MOTION_DDOT":0},{"OBJECT_NAME":"STARLINK-33924","OBJECT_ID":"2025-112D","EPOCH":"2025-12-12T02:14:28.836384","MEAN_MOTION":15.05661682,"ECCENTRICITY":5.323e-5,"INCLINATION":97.6063,"RA_OF_ASC_NODE":35.1061,"ARG_OF_PERICENTER":97.7082,"MEAN_ANOMALY":262.4206,"EPHEMERIS_TYPE":0,"CLASSIFICATION_TYPE":"U","NORAD_CAT_ID":64149,"ELEMENT_SET_NO":999,"REV_AT_EPOCH":3012,"BSTAR":0.00070956397,"MEAN_MOTION_DOT":0.00010195,"MEAN_MOTION_DDOT":0},{"OBJECT_NAME":"STARLINK-34209","OBJECT_ID":"2025-112E","EPOCH":"2025-12-12T02:38:24.982368","MEAN_MOTION":15.05659223,"ECCENTRICITY":9.285e-5,"INCLINATION":97.6036,"RA_OF_ASC_NODE":35.2357,"ARG_OF_PERICENTER":163.5997,"MEAN_ANOMALY":196.526,"EPHEMERIS_TYPE":0,"CLASSIFICATION_TYPE":"U","NORAD_CAT_ID":64150,"ELEMENT_SET_NO":999,"REV_AT_EPOCH":3013,"BSTAR":0.00044938914,"MEAN_MOTION_DOT":6.431e-5,"MEAN_MOTION_DDOT":0},{"OBJECT_NAME":"STARLINK-34338","OBJECT_ID":"2025-112F","EPOCH":"2025-12-12T02:26:27.115872","MEAN_MOTION":15.05676017,"ECCENTRICITY":0.00013366,"INCLINATION":97.604,"RA_OF_ASC_NODE":35.2479,"ARG_OF_PERICENTER":151.8121,"MEAN_ANOMALY":208.3179,"EPHEMERIS_TYPE":0,"CLASSIFICATION_TYPE":"U","NORAD_CAT_ID":64151,"ELEMENT_SET_NO":999,"REV_AT_EPOCH":3013,"BSTAR":0.00055262715,"MEAN_MOTION_DOT":7.928e-5,"MEAN_MOTION_DDOT":0},{"OBJECT_NAME":"STARLINK-34348","OBJECT_ID":"2025-112G","EPOCH":"2025-12-12T03:14:18.389184","MEAN_MOTION":15.05659448,"ECCENTRICITY":0.00019854,"INCLINATION":97.6054,"RA_OF_ASC_NODE":35.2074,"ARG_OF_PERICENTER":93.9811,"MEAN_ANOMALY":266.1642,"EPHEMERIS_TYPE":0,"CLASSIFICATION_TYPE":"U","NORAD_CAT_ID":64152,"ELEMENT_SET_NO":999,"REV_AT_EPOCH":3013,"BSTAR":0.0010852031,"MEAN_MOTION_DOT":0.00015636,"MEAN_MOTION_DDOT":0},{"OBJECT_NAME":"STARLINK-34345","OBJECT_ID":"2025-112H","EPOCH":"2025-12-12T06:13:44.436576","MEAN_MOTION":15.05665522,"ECCENTRICITY":0.00011918,"INCLINATION":97.6048,"RA_OF_ASC_NODE":35.3482,"ARG_OF_PERICENTER":96.3341,"MEAN_ANOMALY":263.8021,"EPHEMERIS_TYPE":0,"CLASSIFICATION_TYPE":"U","NORAD_CAT_ID":64153,"ELEMENT_SET_NO":999,"REV_AT_EPOCH":3015,"BSTAR":0.00027159341,"MEAN_MOTION_DOT":3.862e-5,"MEAN_MOTION_DDOT":0}]
