STARLINK-34129          
1 64138U 25111R   25346.02435621  .00050208  00000+0  18200-2 0  9992
2 64138  43.0004 213.1748 0001763 262.6640  97.4011 15.27610460 32104
STARLINK-34212          
1 64139U 25111S   25346.06018810  .00038851  00000+0  14132-2 0  9994
2 64139  43.0000 212.5736 0001731 265.4723  94.5931 15.27596757 32065
STARLINK-34149          
1 64140U 25111T   25345.93969196  .00040461  00000+0  14707-2 0  9991
2 64140  43.0000 213.3908 0001897 264.1630  95.9005 15.27602735 32042
STARLINK-34054          
1 64141U 25111U   25346.00250970  .00038422  00000+0  13976-2 0  9995
2 64141  42.9998 213.0014 0001831 267.1918  92.8724 15.27599049 32050
STARLINK-34195          
1 64142U 25111V   25346.05634500  .00009480  00000+0  35390-3 0  9993
2 64142  42.9997 212.5384 0001979 242.4553 117.6098 15.27548337 32063
STARLINK-34133          
1 64143U 25111W   25346.05247751  .00033821  00000+0  12322-2 0  9997
2 64143  42.9990 212.5133 0001565 262.0888  97.9786 15.27599703 32066
STARLINK-34181          
1 64144U 25111X   25346.00893723  .00030901  00000+0  11273-2 0  9999
2 64144  42.9976 213.0500 0000858 256.0412 104.0344 15.27591996 32050
STARLINK-34186          
1 64145U 25111Y   25346.01793272  .00030362  00000+0  11071-2 0  9996
2 64145  43.0003 213.1211 0001615 267.8226  92.2441 15.27615036 32057
STARLINK-34314          
1 64146U 25112A   25346.14323855  .00011016  00000+0  76629-3 0  9994
2 64146  97.6060  35.1923 0001738  93.9750 266.1676 15.05658062 30135
STARLINK-33926          
1 64147U 25112B   25346.11832151  .00002297  00000+0  16334-3 0  9994
2 64147  97.6037  35.2261 0001466  98.9744 261.1649 15.05652028 30133
STARLINK-34213          
1 64148U 25112C   25346.15154117  .00008156  00000+0  56862-3 0  9998
2 64148  97.6071  35.1807 0000618 165.0685 195.0560 15.05661220 30136
STARLINK-33924          
1 64149U 25112D   25346.09338931  .00010195  00000+0  70956-3 0  9996
2 64149  97.6063  35.1061 0000532  97.7082 262.4206 15.05661682 30124
STARLINK-34209          
1 64150U 25112E   25346.11001137  .00006431  00000+0  44939-3 0  9996
2 64150  97.6036  35.2357 0000928 163.5997 196.5260 15.05659223 30137
STARLINK-34338          
1 64151U 25112F   25346.10170273  .00007928  00000+0  55263-3 0  9998
2 64151  97.6040  35.2479 0001336 151.8121 208.3179 15.05676017 30132
STARLINK-34348          
1 64152U 25112G   25346.13493506  .00015636  00000+0  10852-2 0  9998
2 64152  97.6054  35.2074 0001985  93.9811 266.1642 15.05659448 30137
STARLINK-34345          
1 64153U 25112H   25346.25954209  .00003862  00000+0  27159-3 0  9991
2 64153  97.6048  35.3482 0001191  96.3341 263.8021 15.05665522 30156
